HORIZONS-3E             
1 43633U 18074B   24310.74707940 -.00000013  00000+0  00000+0 0  9990
2 43633   0.0120 198.5881 0001228  67.2740 217.5724  1.00271251 22442
AEHF-4 (USA 288)        
1 43651U 18079A   24311.41504389 -.00000260  00000+0  00000+0 0  9996
2 43651   1.6671 332.6626 0049523   7.8609 147.5312  1.00273030 22400
BEIDOU-3 G1             
1 43683U 18085A   24311.52764097 -.00000261  00000+0  00000+0 0  9995
2 43683   2.5402 104.4725 0002364  41.3488 230.3338  1.00276709 22160
GSAT-29                 
1 43698U 18089A   24310.61021454  .00000102  00000+0  00000+0 0  9990
2 43698   0.0614 268.8635 0003931 304.6425 106.5788  1.00272742 21891
ES'HAIL 2               
1 43700U 18090A   24311.50496519  .00000160  00000+0  00000+0 0  9997
2 43700   0.0108 267.5368 0001423 349.4447 356.8265  1.00271713 21782
GEO-KOMPSAT-2A          
1 43823U 18100A   24310.95342052 -.00000327  00000+0  00000+0 0  9991
2 43823   0.0474  94.2574 0001251  46.8776  16.0564  1.00270640 21730
GSAT-11                 
1 43824U 18100B   24311.51452203 -.00000062  00000+0  00000+0 0  9991
2 43824   0.0181 270.6413 0003473 219.2817 175.5277  1.00272313 21593
GSAT-7A                 
1 43864U 18105A   24311.56854965  .00000042  00000+0  00000+0 0  9993
2 43864   0.0714  85.9867 0002354 133.9019  93.8889  1.00270358 21556
COSMOS 2533             
1 43867U 18107A   24310.08403251 -.00000019  00000+0  00000+0 0  9997
2 43867   0.0082  79.7074 0000548 139.6171 285.7550  1.00268626 21533
TJS-3                   
1 43874U 18110A   24311.51944145  .00000026  00000+0  00000+0 0  9997
2 43874   1.0190  87.3609 0005250 154.3676 165.2553  1.00280868 21526
ZHONGXING-2D            
1 43920U 19001A   24311.52564272 -.00000322  00000+0  00000+0 0  9999
2 43920   0.0423  57.7956 0003668 196.9304 110.7712  1.00270457 48189
HELLAS-SAT 4 & SGS-1    
1 44034U 19007A   24311.50757160  .00000168  00000+0  00000+0 0  9997
2 44034   0.0748 113.8309 0006290  49.7291 104.4097  1.00266941 21467
GSAT-31                 
1 44035U 19007B   24311.50896168  .00000140  00000+0  00000+0 0  9990
2 44035   0.0523 263.1653 0005802 338.4631  35.7166  1.00272965 21077
NUSANTARA SATU          
1 44048U 19009A   24309.74168667 -.00000215  00000+0  00000+0 0  9999
2 44048   0.0389 121.4394 0003660  43.5027 292.5778  1.00270885 20858
ZHONGXING-6C            
1 44067U 19012A   24311.52572961 -.00000319  00000+0  00000+0 0  9994
2 44067   0.0205   6.7357 0001036 191.9068 167.2405  1.00276577 20846
WGS 10 (USA 291)        
1 44071U 19014A   24309.22618888  .00000062  00000+0  00000+0 0  9998
2 44071   0.0128 246.5484 0000851 332.8840 326.3209  1.00296500 20712
TIANLIAN 2-01           
1 44076U 19017A   24311.51513020 -.00000092  00000+0  00000+0 0  9997
2 44076   0.0598 100.6973 0002269 150.8761  57.1701  1.00271610 20751
ARABSAT-6A              
1 44186U 19021A   24310.86254355  .00000170  00000+0  00000+0 0  9990
2 44186   0.0401 340.9240 0005556 267.2903 138.3764  1.00265818 20254
BEIDOU-3 IGSO-1         
1 44204U 19023A   24311.53440556 -.00000213  00000+0  00000+0 0  9997
2 44204  57.8533  43.7430 0025107 209.5219 103.2088  1.00258927  1312
BEIDOU-2 G8             
1 44231U 19027A   24311.52859666 -.00000231  00000+0  00000+0 0  9996
2 44231   1.8276  74.5991 0004051 190.9332 115.5753  1.00273121 20187
YAMAL 601               
1 44307U 19031A   24310.93769515  .00000137  00000+0  00000+0 0  9996
2 44307   0.0072 282.8302 0002169 300.2481 209.1672  1.00271449 20018
AT&T T-16               
1 44333U 19034A   24311.55127248 -.00000099  00000+0  00000+0 0  9996
2 44333   0.0183 280.9383 0001065 174.2387  48.6971  1.00269083 19743
EUTELSAT 7C             
1 44334U 19034B   24309.84007616  .00000068  00000+0  00000+0 0  9997
2 44334   0.0692 189.4772 0003041  13.9476 150.6036  1.00271726   921
BEIDOU-3 IGSO-2         
1 44337U 19035A   24310.55688241 -.00000068  00000+0  00000+0 0  9991
2 44337  55.1841 164.0303 0034708 200.9482 357.5202  1.00253172 19769
COSMOS 2539             
1 44457U 19048A   24309.14315312  .00000102  00000+0  00000+0 0  9995
2 44457   0.0294 126.7643 0000150  12.3298 328.3586  1.00272305 19310
EDRS-C                  
1 44475U 19049A   24310.78705516  .00000172  00000+0  00000+0 0  9994
2 44475   0.0664 252.4098 0000725 316.3728 151.2534  1.00270831 19313
INTELSAT 39 (IS-39)     
1 44476U 19049B   24309.82202078  .00000052  00000+0  00000+0 0  9990
2 44476   0.0183 272.6711 0000346 190.1450 299.6326  1.00271563 19213
AMOS-17                 
1 44479U 19050A   24310.64499484  .00000127  00000+0  00000+0 0  9999
2 44479   0.0132 317.5684 0002233 259.6008  77.4246  1.00271368 19288
AEHF-5 (USA 292)        
1 44481U 19051A   24311.51773661 -.00000218  00000+0  00000+0 0  9994
2 44481   2.4239 309.8190 0055260  10.1146   2.6697  1.00267976 19372
EUTELSAT 5 WEST B       
1 44624U 19067A   24311.21287306 -.00000025  00000+0  00000+0 0  9999
2 44624   0.0658 352.0177 0003310 234.2181 251.3482  1.00275070 18550
MEV-1                   
1 44625U 19067B   24311.27994477 -.00000185  00000+0  00000+0 0  9997
2 44625   0.0627  84.8061 0000429 142.4060 252.0832  1.00271789 18463
TJS-4                   
1 44637U 19070A   24311.58793603 -.00000157  00000+0  00000+0 0  9995
2 44637   0.0589 298.2096 0001125 223.4387 179.9693  1.00276458 18570
BEIDOU-3 IGSO-3         
1 44709U 19073A   24310.34429977 -.00000176  00000+0  00000+0 0  9992
2 44709  55.8133 287.2267 0040720 190.9415 168.9185  1.00259250 18558
TIBA-1                  
1 44800U 19080A   24311.50687656  .00000171  00000+0  00000+0 0  9995
2 44800   0.0577   4.6412 0002101 215.7077  43.8622  1.00271887 18162
INMARSAT GX5            
1 44801U 19080B   24311.50192437  .00000091  00000+0  00000+0 0  9995
2 44801   0.0405 357.3876 0002482 231.5507   9.0000  1.00274417   900
JCSAT-18 (KACIFIC 1)    
1 44868U 19091A   24310.68799663 -.00000183  00000+0  00000+0 0  9995
2 44868   0.0103 330.6041 0000125 287.5821 184.9196  1.00271344 18104
ELEKTRO-L 3             
1 44903U 19095A   24311.51495644 -.00000082  00000+0  00000+0 0  9992
2 44903   0.0670  58.1770 0001513 198.3187  51.1935  1.00271640 17801
SHIJIAN-20 (SJ-20)      
1 44910U 19097A   24311.58585090 -.00000051  00000+0  00000+0 0  9990
2 44910   3.4058  82.2321 0009530 134.1370 113.8713  1.00269735 17795
TJS-5                   
1 44978U 20002A   24311.52121182 -.00000327  00000+0  00000+0 0  9990
2 44978   0.1406  93.5944 0005244 113.6289 134.1771  1.00272421 17803
GSAT-30                 
1 45026U 20005A   24310.39979905 -.00000147  00000+0  00000+0 0  9996
2 45026   0.0390 102.0189 0002007  76.0824  93.9675  1.00272077 17607
EUTELSAT KONNECT        
1 45027U 20005B   24310.07152172  .00000068  00000+0  00000+0 0  9992
2 45027   0.0612  86.3198 0000916 219.0430 132.4123  1.00269852 18412
JCSAT-17                
1 45245U 20013A   24310.53475868 -.00000303  00000+0  00000+0 0  9997
2 45245   5.5223 351.1507 0003165 230.0551 152.5756  1.00270254 17338
GEO-KOMPSAT-2B          
1 45246U 20013B   24309.95259059 -.00000325  00000+0  00000+0 0  9998
2 45246   0.0174 346.9331 0001949 256.7725 272.2052  1.00272064 17371
BEIDOU-3 G2             
1 45344U 20017A   24311.51573837 -.00000125  00000+0  00000+0 0  9997
2 45344   2.5097  34.5670 0004090 206.3418  71.0157  1.00270371 17366
AEHF-6 (USA 298)        
1 45465U 20022B   24311.45579082 -.00000285  00000+0  00000+0 0  9995
2 45465   3.8940 298.2474 0045929   2.0457  47.7612  1.00272053 17121
BEIDOU-3 G3             
1 45807U 20040A   24311.52181999 -.00000338  00000+0  00000+0 0  9998
2 45807   1.0524  55.1870 0003215 301.4006 348.0847  1.00270360 16177
APSTAR-6D               
1 45863U 20045A   24308.95296506 -.00000298  00000+0  00000+0 0  9994
2 45863   0.0175 238.2003 0004149 356.1404 286.4466  1.00268053 15940
KOREASAT 116            
1 45920U 20048A   24311.54146726 -.00000347  00000+0  00000+0 0  9993
2 45920   0.0228 286.0426 0000976 281.2952 150.0584  1.00267364 15742
EXPRESS 103             
1 45985U 20053A   24310.94716513 -.00000265  00000+0  00000+0 0  9999
2 45985   0.0146 267.2490 0000887 237.2705 338.6549  1.00276330 15751
EXPRESS 80              
1 45986U 20053B   24310.65181290 -.00000119  00000+0  00000+0 0  9994
2 45986   0.0206 281.5591 0000198 213.3832 225.0996  1.00271948 15734
BSAT-4B                 
1 46112U 20056A   24309.94894163 -.00000331  00000+0  00000+0 0  9995
2 46112   0.0692 106.6297 0003340  62.1781 327.3452  1.00268100 15481
MEV-2                   
1 46113U 20056B   24311.38109500  .00000006  00000+0  00000+0 0  9999
2 46113   0.0235  51.1620 0000390 176.4097 314.7636  1.00271773 16328
GALAXY 30 (G-30)        
1 46114U 20056C   24311.54649404  .00000052  00000+0  00000+0 0  9991
2 46114   0.0123 282.5550 0002029 290.8195 264.6516  1.00270926 15405
GAOFEN-13 01            
1 46610U 20071A   24311.54146726 -.00000347  00000+0  00000+0 0  9996
2 46610   0.0455  43.5027 0016701 152.7924 162.7312  1.00275254 15025
TIANTONG-1 2            
1 46916U 20082A   24311.52468704 -.00000341  00000+0  00000+0 0  9992
2 46916   2.0110 294.8304 0003569 326.8965  98.3341  1.00274262 14764
LUCAS (JDRS-1)          
1 47202U 20089A   24311.50396519 -.00000220  00000+0  00000+0 0  9996
2 47202   0.0081 275.3802 0002192 310.9757  92.1020  1.00270881 14522
SXM-7                   
1 47240U 20096A   24309.40978927 -.00000185  00000+0  00000+0 0  9991
2 47240   0.0235 144.3133 0004790 343.2486 338.9416  1.00271531  1542
CMS-01                  
1 47256U 20099A   24311.51634652 -.00000150  00000+0  00000+0 0  9992
2 47256   0.0602  92.3095 0008107 168.0612  54.7713  1.00271228 14300
TURKSAT 5A              
1 47306U 21001A   24310.93413306  .00000171  00000+0  00000+0 0  9990
2 47306   0.0050  23.2480 0000242  13.6040  16.0271  1.00271837 14065
